[{"OBJECT_NAME":"CINEMA","OBJECT_ID":"2012-048G","EPOCH":"2026-03-09T23:21:38.910528","MEAN_MOTION":15.41758997,"ECCENTRICITY":0.00644529,"INCLINATION":64.645,"RA_OF_ASC_NODE":61.8658,"ARG_OF_PERICENTER":204.5071,"MEAN_ANOMALY":155.2999,"EPHEMERIS_TYPE":0,"CLASSIFICATION_TYPE":"U","NORAD_CAT_ID":38764,"ELEMENT_SET_NO":999,"REV_AT_EPOCH":10191,"BSTAR":0.00076174658,"MEAN_MOTION_DOT":0.0003483,"MEAN_MOTION_DDOT":0},{"OBJECT_NAME":"STARLINK-35687","OBJECT_ID":"2025-265J","EPOCH":"2026-03-09T21:59:05.638272","MEAN_MOTION":15.27605426,"ECCENTRICITY":0.00016374,"INCLINATION":43.0008,"RA_OF_ASC_NODE":277.0378,"ARG_OF_PERICENTER":295.7598,"MEAN_ANOMALY":64.3085,"EPHEMERIS_TYPE":0,"CLASSIFICATION_TYPE":"U","NORAD_CAT_ID":66524,"ELEMENT_SET_NO":999,"REV_AT_EPOCH":1714,"BSTAR":0.0013181707,"MEAN_MOTION_DOT":0.00036218,"MEAN_MOTION_DDOT":0}]
